INTELSAT 26             
1 24732C 97007A   20321.00000000  .00000108  00000-0  00000-0 0  3217
2 24732   9.2583  42.0982 0001716 345.3716  91.7200  1.00271876    18
INTELSAT 26             
1 24732C 97007A   20324.00000000  .00000108  00000-0  00000-0 0  3243
2 24732   9.2602  42.0905 0001759 336.7199 103.3522  1.00272174    10
INTELSAT 26         [PM]
1 24732C 97007A   20326.07638889  .00000108  00000-0  00000-0 0  3266
2 24732   9.2597  42.1092 0002135 313.4012 156.2050  1.00264845    15
GALAXY 25               
1 24812C 97026A   20321.00000000  .00000245  00000-0  00000-0 0  3219
2 24812   2.2834  89.0716 0004813 166.2914 193.1043  1.00268857    13
GALAXY 25               
1 24812C 97026A   20324.00000000  .00000245  00000-0  00000-0 0  3245
2 24812   2.2919  89.1287 0004927 168.7402 193.5264  1.00270496    17
GALAXY 25           [PM]
1 24812C 97026A   20329.58805556  .00000245  00000-0  00000-0 0  3297
2 24812   2.2976  75.8091 0005006 171.2181  61.5664  1.00270975    17
INTELSAT 5              
1 24916C 97046A   20321.00000000  .00000186  00000-0  00000-0 0  3210
2 24916   6.0215  64.6824 0004431 187.9133  25.9294  1.00271707    19
INTELSAT 5          [PM]
1 24916C 97046A   20321.61276620  .00000186  00000-0  00000-0 0  3210
2 24916   6.0232  64.6917 0002316 163.0478 271.9975  1.00269060    16
INTELSAT 5              
1 24916C 97046A   20324.00000000  .00000186  00000-0  00000-0 0  3246
2 24916   6.0270  64.6891 0004602 187.3113  29.4615  1.00272753    14
GALAXY 11               
1 26038C 99071A   20321.00000000 -.00000073  00000-0  00000-0 0  3213
2 26038   1.5845  95.0869 0000315 345.8883 241.4783  1.00270823    12
GALAXY 11               
1 26038C 99071A   20324.00000000 -.00000073  00000-0  00000-0 0  3249
2 26038   1.5931  95.1835 0000327 354.0449 236.1807  1.00270920    11
INTELSAT 9          [PM]
1 26451C 00043A   20318.67607639 -.00000191  00000-0  00000-0 0  3180
2 26451   6.0023  64.8588 0003045 206.5142 335.2566  1.00274429    12
INTELSAT 9              
1 26451C 00043A   20321.00000000 -.00000191  00000-0  00000-0 0  3214
2 26451   6.0097  64.8803 0003993 166.2397 134.4393  1.00269743    19
INTELSAT 9              
1 26451C 00043A   20324.00000000 -.00000191  00000-0  00000-0 0  3240
2 26451   6.0153  64.8937 0004045 166.2638 137.3542  1.00268816    15
INTELSAT 12             
1 26590C 00068A   20321.00000000  .00000104  00000-0  00000-0 0  3218
2 26590   3.2877  84.8463 0004249 157.4682 237.4525  1.00272184    10
INTELSAT 12             
1 26590C 00068A   20324.00000000  .00000104  00000-0  00000-0 0  3244
2 26590   3.2958  84.8805 0004316 161.1075 236.7346  1.00272768    14
INTELSAT 12         [PM]
1 26590C 00068A   20330.02631944  .00000104  00000-0  00000-0 0  3307
2 26590   3.3042  79.2840 0004440 169.7115 249.1682  1.00275206    14
INTELSAT 1R             
1 26608C 00072A   20321.00000000 -.00000047  00000-0  00000-0 0  3210
2 26608   3.0386  85.2565 0000921 337.9886 149.3819  1.00271018    17
INTELSAT 1R             
1 26608C 00072A   20324.00000000 -.00000047  00000-0  00000-0 0  3246
2 26608   3.0479  85.2635 0000469 328.6102 161.7191  1.00270834    19
INTELSAT 10             
1 26766C 01019A   20321.00000000  .00000216  00000-0  00000-0 0  3214
2 26766   4.2366  77.8733 0003600 146.7271 238.4252  1.00272122    16
INTELSAT 10         [PM]
1 26766C 01019A   20323.02315972  .00000217  00000-0  00000-0 0  3238
2 26766   4.2406  77.8737 0003483 134.8672 260.6015  1.00277589    13
INTELSAT 10             
1 26766C 01019A   20324.00000000  .00000216  00000-0  00000-0 0  3240
2 26766   4.2440  77.8988 0003630 148.6963 239.3838  1.00273519    14
INTELSAT 901            
1 26824C 01024A   20321.00000000 -.00000107  00000-0  00000-0 0  3215
2 26824   0.0508 103.5139 0000473 162.9981 121.5352  1.00270299    19
INTELSAT 901            
1 26824C 01024A   20324.00000000 -.00000112  00000-0  00000-0 0  3247
2 26824   0.0462 102.7435 0000578 142.4027 145.8549  1.00270557    12
INTELSAT 902            
1 26900C 01039A   20321.00000000 -.00000192  00000-0  00000-0 0  3210
2 26900   0.9810  94.8958 0002931 144.6840 125.8695  1.00270264    11
INTELSAT 902            
1 26900C 01039A   20324.00000000 -.00000192  00000-0  00000-0 0  3246
2 26900   0.9901  95.0733 0002942 144.2720 129.0575  1.00271982    12
INTELSAT 902        [PM]
1 26900C 01039A   20328.86870370 -.00000192  00000-0  00000-0 0  3283
2 26900   0.9981  95.0538 0003251 148.5636  82.3087  1.00273358    18
INTELSAT 904            
1 27380C 02007A   20321.00000000 -.00000123  00000-0  00000-0 0  3213
2 27380   1.8198  91.7134 0003061 139.2811 155.0659  1.00271724    15
INTELSAT 904            
1 27380C 02007A   20324.00000000 -.00000123  00000-0  00000-0 0  3249
2 27380   1.8284  91.7941 0003099 142.1837 155.0347  1.00271197    17
INTELSAT 904        [PM]
1 27380C 02007A   20326.83932870 -.00000123  00000-0  00000-0 0  3263
2 27380   1.8333  91.8073 0003255 144.5893  97.5647  1.00272457    14
INTELSAT 905        [PM]
1 27438C 02027A   20320.98733796 -.00000094  00000-0  00000-0 0  3206
2 27438   1.6406  92.5641 0002500 131.9610 161.9588  1.00272477    17
INTELSAT 905            
1 27438C 02027A   20321.00000000 -.00000094  00000-0  00000-0 0  3216
2 27438   1.6406  92.5641 0002498 131.8646 166.6254  1.00272392    19
INTELSAT 905            
1 27438C 02027A   20324.00000000 -.00000094  00000-0  00000-0 0  3242
2 27438   1.6492  92.6558 0002517 135.1139 166.2456  1.00272127    14
GALAXY 3C               
1 27445C 02030A   20321.00000000 -.00000061  00000-0  00000-0 0  3212
2 27445   0.0253 302.3444 0001417  36.4589 341.6854  1.00271116    13
GALAXY 3C               
1 27445C 02030A   20324.00000000 -.00000061  00000-0  00000-0 0  3248
2 27445   0.0191 304.2225 0001426  34.0225 345.2073  1.00271817    14
INTELSAT 906            
1 27513C 02041A   20321.00000000  .00000105  00000-0  00000-0 0  3218
2 27513   0.6455  97.1101 0002962 137.4938 245.0965  1.00272409    10
INTELSAT 906            
1 27513C 02041A   20324.00000000  .00000105  00000-0  00000-0 0  3244
2 27513   0.6549  97.3489 0002989 138.5035 246.7990  1.00271113    11
INTELSAT 906        [PM]
1 27513C 02041A   20324.71994213  .00000105  00000-0  00000-0 0  3240
2 27513   0.6561  97.4029 0003020 139.6665 145.4685  1.00271407    16
GALAXY 12               
1 27715C 03013B   20321.00000000  .00000149  00000-0  00000-0 0  3210
2 27715   1.8557  91.1122 0001460 143.3477  52.0873  1.00272329    18
GALAXY 12               
1 27715C 03013B   20324.00000000  .00000149  00000-0  00000-0 0  3246
2 27715   1.8633  91.1870 0001523 139.7868  58.5277  1.00270870    14
GALAXY 12           [PM]
1 27715C 03013B   20329.59821759  .00000149  00000-0  00000-0 0  3292
2 27715   1.8728  91.1253 0001926 145.2007 274.0581  1.00270783    14
GALAXY 23               
1 27854C 03034A   20321.00000000  .00000103  00000-0  00000-0 0  3217
2 27854   0.0147 273.4466 0002920 321.3283  59.7797  1.00270507    14
GALAXY 23               
1 27854C 03034A   20324.00000000  .00000040  00000-0  00000-0 0  3243
2 27854   0.0069 263.1935 0002951 334.5156  59.7927  1.00271198    15
GALAXY 23           [PM]
1 27854C 03034A   20329.04086806  .00000079  00000-0  00000-0 0  3297
2 27854   0.0070 226.7040 0003078   5.2456  85.2326  1.00272165    17
GALAXY 13               
1 27954C 03044A   20321.00000000  .00000148  00000-0  00000-0 0  3218
2 27954   0.0507 107.8044 0001327  60.8282 119.8975  1.00270952    11
GALAXY 13               
1 27954C 03044A   20324.00000000  .00000142  00000-0  00000-0 0  3248
2 27954   0.0474 112.8512 0000432  24.2765 154.3720  1.00271982    12
GALAXY 13           [PM]
1 27954C 03044A   20324.77387732  .00000165  00000-0  00000-0 0  3247
2 27954   0.0472 112.5533 0000620 288.8630 169.4736  1.00272998    10
INTELSAT 10-02          
1 28358C 04022A   20321.00000000  .00000080  00000-0  00000-0 0  3219
2 28358   0.0125 275.7327 0002551 314.9474 183.8832  1.00271960    14
INTELSAT 10-02          
1 28358C 04022A   20324.00000000  .00000079  00000-0  00000-0 0  3243
2 28358   0.0221 271.3400 0002565 319.6129 186.5659  1.00271066    13
INTELSAT 10-02      [PM]
1 28358C 04022A   20329.10486111  .00000079  00000-0  00000-0 0  3295
2 28358   0.0344 259.0929 0002892 333.6111 227.5976  1.00270647    10
GALAXY 28               
1 28702C 05022A   20321.00000000 -.00000091  00000-0  00000-0 0  3216
2 28702   0.0025 315.5184 0000212  24.6482 346.3896  1.00271000    17
GALAXY 28               
1 28702C 05022A   20324.00000000 -.00000086  00000-0  00000-0 0  3246
2 28702   0.0090  23.6010 0000361 320.3787 345.5157  1.00270945    11
GALAXY 28           [PM]
1 28702C 05022A   20324.37488426 -.00000203  00000-0  00000-0 0  3249
2 28702   0.0347 120.7398 0000000 145.2586 198.8261  1.00273086    19
GALAXY 14               
1 28790C 05030A   20321.00000000  .00000127  00000-0  00000-0 0  3211
2 28790   0.0222 322.4417 0002271 259.9125  68.1960  1.00272127    15
GALAXY 14               
1 28790C 05030A   20324.00000000  .00000130  00000-0  00000-0 0  3241
2 28790   0.0153 340.5538 0002281 243.7893  69.1721  1.00272912    15
GALAXY 14           [PM]
1 28790C 05030A   20325.56903935  .00000126  00000-0  00000-0 0  3258
2 28790   0.0141 349.4415 0002376 231.7778 278.7061  1.00269377    14
GALAXY 15               
1 28884C 05041A   20321.00000000  .00000169  00000-0  00000-0 0  3213
2 28884   0.0130  38.8557 0001505 180.7382  62.9500  1.00271632    17
GALAXY 15               
1 28884C 05041A   20324.00000000  .00000085  00000-0  00000-0 0  3246
2 28884   0.0342 120.9312 0001624  95.9816  68.5957  1.00269966    10
GALAXY 15           [PM]
1 28884C 05041A   20328.48035880  .00000169  00000-0  00000-0 0  3283
2 28884   0.0171 278.4195 0001930 313.2676 231.1591  1.00273088    10
